ONEWEB-0309             
1 49095U 21075W   23322.40600724 -.00000063  00000+0 -19462-3 0  9992
2 49095  87.9230 193.0661 0001658 100.6729 259.4589 13.17648993109552
ONEWEB-0310             
1 49096U 21075X   23322.32576363 -.00000201  00000+0 -59226-3 0  9991
2 49096  87.9038 177.9776 0001308  89.9120 270.2158 13.12492325111640
ONEWEB-0311             
1 49097U 21075Y   23322.18452787  .00000012  00000+0 -34841-5 0  9996
2 49097  87.9233 193.1088 0002093  84.7211 275.4159 13.17647806109578
ONEWEB-0312             
1 49098U 21075Z   23322.34906025  .00000064  00000+0  13073-3 0  9992
2 49098  87.9244 193.1027 0001826  94.1662 265.9678 13.17648792109577
ONEWEB-0313             
1 49099U 21075AA  23322.63170393  .00000030  00000+0  45341-4 0  9993
2 49099  87.9224 193.0563 0001795  89.3515 270.7822 13.17650792110602
ONEWEB-0314             
1 49100U 21075AB  23322.39758107 -.00000009  00000+0 -55571-4 0  9998
2 49100  87.9229 193.0654 0001981  95.9331 264.2026 13.17648824109545
ONEWEB-0315             
1 49101U 21075AC  23322.52844093  .00000191  00000+0  49569-3 0  9993
2 49101  87.9016 177.9459 0001671  70.5294 289.6015 13.12297766111651
ONEWEB-0316             
1 49102U 21075AD  23322.53157938 -.00001876  00000+0 -47924-2 0  9995
2 49102  87.9147 162.7955 0001838  82.5259 277.6082 13.18691611113105
